{"type": "FeatureCollection", "features": [{"type": "Feature", "properties": {"norad_id": 22490, "name": "SCD 1", "group": "resource", "lat": 16.390169015443277, "lon": 0.8069612091051223, "alt_km": 760.3937991306921, "timestamp": "2025-12-05T18:53:12.953161+00:00", "meta": {"OBJECT_NAME": "SCD 1", "OBJECT_ID": "1993-009B", "EPOCH": "2025-12-05T07:12:13.264992", "MEAN_MOTION": 14.45990531, "ECCENTRICITY": 0.00417679, "INCLINATION": 24.9708, "RA_OF_ASC_NODE": 324.6115, "ARG_OF_PERICENTER": 245.8558, "MEAN_ANOMALY": 136.6908, "EPHEMERIS_TYPE": 0, "CLASSIFICATION_TYPE": "U", "NORAD_CAT_ID": 22490, "ELEMENT_SET_NO": 999, "REV_AT_EPOCH": 73302, "BSTAR": 0.00017062415, "MEAN_MOTION_DOT": 8.1e-06, "MEAN_MOTION_DDOT": 0}, "tle": {"line1": "1 22490U 93009B   25339.30015353  .00000810  00000+0  17062-3 0  9997", "line2": "2 22490  24.9708 324.6115 0041767 245.8558 136.6908 14.45990531733022"}}, "geometry": {"type": "Point", "coordinates": [0.8069612091051223, 16.390169015443277]}}, {"type": "Feature", "properties": {"norad_id": 25397, "name": "TECHSAT 1B (GO-32)", "group": "resource", "lat": 2.879613363756547, "lon": 143.29503802759544, "alt_km": 813.660428047513, "timestamp": "2025-12-05T18:53:12.953187+00:00", "meta": {"OBJECT_NAME": "TECHSAT 1B (GO-32)", "OBJECT_ID": "1998-043D", "EPOCH": "2025-12-04T13:23:55.365216", "MEAN_MOTION": 14.24373417, "ECCENTRICITY": 0.0002213, "INCLINATION": 98.9913, "RA_OF_ASC_NODE": 321.5819, "ARG_OF_PERICENTER": 70.8607, "MEAN_ANOMALY": 289.281, "EPHEMERIS_TYPE": 0, "CLASSIFICATION_TYPE": "U", "NORAD_CAT_ID": 25397, "ELEMENT_SET_NO": 999, "REV_AT_EPOCH": 42362, "BSTAR": 9.8436e-05, "MEAN_MOTION_DOT": 1.81e-06, "MEAN_MOTION_DDOT": 0}, "tle": {"line1": "1 25397U 98043D   25338.55827969  .00000181  00000+0  98436-4 0  9995", "line2": "2 25397  98.9913 321.5819 0002213  70.8607 289.2810 14.24373417423625"}}, "geometry": {"type": "Point", "coordinates": [143.29503802759544, 2.879613363756547]}}, {"type": "Feature", "properties": {"norad_id": 25504, "name": "SCD 2", "group": "resource", "lat": 24.966742781163198, "lon": -87.16950395272123, "alt_km": 745.3006348516583, "timestamp": "2025-12-05T18:53:12.953203+00:00", "meta": {"OBJECT_NAME": "SCD 2", "OBJECT_ID": "1998-060A", "EPOCH": "2025-12-05T07:37:24.133152", "MEAN_MOTION": 14.45416872, "ECCENTRICITY": 0.00166278, "INCLINATION": 24.9936, "RA_OF_ASC_NODE": 187.6629, "ARG_OF_PERICENTER": 234.163, "MEAN_ANOMALY": 287.1333, "EPHEMERIS_TYPE": 0, "CLASSIFICATION_TYPE": "U", "NORAD_CAT_ID": 25504, "ELEMENT_SET_NO": 999, "REV_AT_EPOCH": 43224, "BSTAR": 0.00012907093, "MEAN_MOTION_DOT": 6.45e-06, "MEAN_MOTION_DDOT": 0}, "tle": {"line1": "1 25504U 98060A   25339.31764043  .00000645  00000+0  12907-3 0  9995", "line2": "2 25504  24.9936 187.6629 0016627 234.1630 287.1333 14.45416872432245"}}, "geometry": {"type": "Point", "coordinates": [-87.16950395272123, 24.966742781163198]}}, {"type": "Feature", "properties": {"norad_id": 25757, "name": "DLR-TUBSAT", "group": "resource", "lat": 54.98062798977476, "lon": -48.46958409331749, "alt_km": 721.6402369044135, "timestamp": "2025-12-05T18:53:12.953215+00:00", "meta": {"OBJECT_NAME": "DLR-TUBSAT", "OBJECT_ID": "1999-029B", "EPOCH": "2025-12-04T22:47:17.456640", "MEAN_MOTION": 14.52353065, "ECCENTRICITY": 0.0013476, "INCLINATION": 98.6556, "RA_OF_ASC_NODE": 323.2231, "ARG_OF_PERICENTER": 217.2961, "MEAN_ANOMALY": 142.7299, "EPHEMERIS_TYPE": 0, "CLASSIFICATION_TYPE": "U", "NORAD_CAT_ID": 25757, "ELEMENT_SET_NO": 999, "REV_AT_EPOCH": 40505, "BSTAR": 8.4027e-05, "MEAN_MOTION_DOT": 2.94e-06, "MEAN_MOTION_DDOT": 0}, "tle": {"line1": "1 25757U 99029B   25338.94950760  .00000294  00000+0  84027-4 0  9995", "line2": "2 25757  98.6556 323.2231 0013476 217.2961 142.7299 14.52353065405054"}}, "geometry": {"type": "Point", "coordinates": [-48.46958409331749, 54.98062798977476]}}, {"type": "Feature", "properties": {"norad_id": 25994, "name": "TERRA", "group": "resource", "lat": -80.92156928160068, "lon": 150.39098300567605, "alt_km": 699.6977949930679, "timestamp": "2025-12-05T18:53:12.953227+00:00", "meta": {"OBJECT_NAME": "TERRA", "OBJECT_ID": "1999-068A", "EPOCH": "2025-12-05T06:27:52.145856", "MEAN_MOTION": 14.60939476, "ECCENTRICITY": 0.00034645, "INCLINATION": 97.9759, "RA_OF_ASC_NODE": 31.2276, "ARG_OF_PERICENTER": 112.9038, "MEAN_ANOMALY": 312.087, "EPHEMERIS_TYPE": 0, "CLASSIFICATION_TYPE": "U", "NORAD_CAT_ID": 25994, "ELEMENT_SET_NO": 999, "REV_AT_EPOCH": 38129, "BSTAR": 0.00021596868, "MEAN_MOTION_DOT": 1.013e-05, "MEAN_MOTION_DDOT": 0}, "tle": {"line1": "1 25994U 99068A   25339.26935354  .00001013  00000+0  21597-3 0  9991", "line2": "2 25994  97.9759  31.2276 0003464 112.9038 312.0870 14.60939476381292"}}, "geometry": {"type": "Point", "coordinates": [150.39098300567605, -80.92156928160068]}}, {"type": "Feature", "properties": {"norad_id": 27004, "name": "MAROC-TUBSAT", "group": "resource", "lat": -0.17384714322424225, "lon": 148.139811275155, "alt_km": 999.3140167320125, "timestamp": "2025-12-05T18:53:12.953239+00:00", "meta": {"OBJECT_NAME": "MAROC-TUBSAT", "OBJECT_ID": "2001-056D", "EPOCH": "2025-12-05T01:54:00.023616", "MEAN_MOTION": 13.70252339, "ECCENTRICITY": 0.00190961, "INCLINATION": 99.7911, "RA_OF_ASC_NODE": 147.39, "ARG_OF_PERICENTER": 280.5585, "MEAN_ANOMALY": 189.5201, "EPHEMERIS_TYPE": 0, "CLASSIFICATION_TYPE": "U", "NORAD_CAT_ID": 27004, "ELEMENT_SET_NO": 999, "REV_AT_EPOCH": 19960, "BSTAR": 3.6662742e-05, "MEAN_MOTION_DOT": -1.4e-07, "MEAN_MOTION_DDOT": 0}, "tle": {"line1": "1 27004U 01056D   25339.07916694 -.00000014  00000+0  36663-4 0  9992", "line2": "2 27004  99.7911 147.3900 0019096 280.5585 189.5201 13.70252339199609"}}, "geometry": {"type": "Point", "coordinates": [148.139811275155, -0.17384714322424225]}}, {"type": "Feature", "properties": {"norad_id": 27424, "name": "AQUA", "group": "resource", "lat": 60.34586513825921, "lon": 135.60068809145756, "alt_km": 680.9580917533103, "timestamp": "2025-12-05T18:53:12.953250+00:00", "meta": {"OBJECT_NAME": "AQUA", "OBJECT_ID": "2002-022A", "EPOCH": "2025-12-05T07:20:21.043104", "MEAN_MOTION": 14.6178136, "ECCENTRICITY": 8.47e-05, "INCLINATION": 98.4025, "RA_OF_ASC_NODE": 300.0643, "ARG_OF_PERICENTER": 111.3897, "MEAN_ANOMALY": 356.549, "EPHEMERIS_TYPE": 0, "CLASSIFICATION_TYPE": "U", "NORAD_CAT_ID": 27424, "ELEMENT_SET_NO": 999, "REV_AT_EPOCH": 25494, "BSTAR": 0.00049689186, "MEAN_MOTION_DOT": 2.431e-05, "MEAN_MOTION_DDOT": 0}, "tle": {"line1": "1 27424U 02022A   25339.30579911  .00002431  00000+0  49689-3 0  9990", "line2": "2 27424  98.4025 300.0643 0000847 111.3897 356.5490 14.61781360254947"}}, "geometry": {"type": "Point", "coordinates": [135.60068809145756, 60.34586513825921]}}, {"type": "Feature", "properties": {"norad_id": 28051, "name": "IRS-P6 (RESOURCESAT-1)", "group": "resource", "lat": -81.14589089847843, "lon": 132.4176434341861, "alt_km": 759.4093639790572, "timestamp": "2025-12-05T18:53:12.953261+00:00", "meta": {"OBJECT_NAME": "IRS-P6 (RESOURCESAT-1)", "OBJECT_ID": "2003-046A", "EPOCH": "2025-12-05T06:33:40.019904", "MEAN_MOTION": 14.36069511, "ECCENTRICITY": 0.00637607, "INCLINATION": 98.2189, "RA_OF_ASC_NODE": 20.0262, "ARG_OF_PERICENTER": 203.1583, "MEAN_ANOMALY": 289.3121, "EPHEMERIS_TYPE": 0, "CLASSIFICATION_TYPE": "U", "NORAD_CAT_ID": 28051, "ELEMENT_SET_NO": 999, "REV_AT_EPOCH": 15269, "BSTAR": 0.00015840893, "MEAN_MOTION_DOT": 4.3e-06, "MEAN_MOTION_DDOT": 0}, "tle": {"line1": "1 28051U 03046A   25339.27337986  .00000430  00000+0  15841-3 0  9994", "line2": "2 28051  98.2189  20.0262 0063760 203.1583 289.3121 14.36069511152696"}}, "geometry": {"type": "Point", "coordinates": [132.4176434341861, -81.14589089847843]}}, {"type": "Feature", "properties": {"norad_id": 28220, "name": "SHIYAN-1 (SY-1)", "group": "resource", "lat": 1.8439805379782563, "lon": 40.66113500454515, "alt_km": 480.81512035094147, "timestamp": "2025-12-05T18:53:12.953272+00:00", "meta": {"OBJECT_NAME": "SHIYAN-1 (SY-1)", "OBJECT_ID": "2004-012A", "EPOCH": "2025-12-05T03:09:38.233728", "MEAN_MOTION": 15.2784612, "ECCENTRICITY": 0.00061967, "INCLINATION": 97.8948, "RA_OF_ASC_NODE": 40.2234, "ARG_OF_PERICENTER": 353.729, "MEAN_ANOMALY": 6.3869, "EPHEMERIS_TYPE": 0, "CLASSIFICATION_TYPE": "U", "NORAD_CAT_ID": 28220, "ELEMENT_SET_NO": 999, "REV_AT_EPOCH": 18140, "BSTAR": 0.00092213236, "MEAN_MOTION_DOT": 0.00025062, "MEAN_MOTION_DDOT": 0}, "tle": {"line1": "1 28220U 04012A   25339.13169252  .00025062  00000+0  92213-3 0  9996", "line2": "2 28220  97.8948  40.2234 0006196 353.7290   6.3869 15.27846120181409"}}, "geometry": {"type": "Point", "coordinates": [40.66113500454515, 1.8439805379782563]}}, {"type": "Feature", "properties": {"norad_id": 28376, "name": "AURA", "group": "resource", "lat": -81.56440509256974, "lon": 10.531130037083955, "alt_km": 698.3463044429918, "timestamp": "2025-12-05T18:53:12.953283+00:00", "meta": {"OBJECT_NAME": "AURA", "OBJECT_ID": "2004-026A", "EPOCH": "2025-12-05T06:08:31.131168", "MEAN_MOTION": 14.60918933, "ECCENTRICITY": 0.0001136, "INCLINATION": 98.3173, "RA_OF_ASC_NODE": 289.448, "ARG_OF_PERICENTER": 92.3877, "MEAN_ANOMALY": 267.7453, "EPHEMERIS_TYPE": 0, "CLASSIFICATION_TYPE": "U", "NORAD_CAT_ID": 28376, "ELEMENT_SET_NO": 999, "REV_AT_EPOCH": 13789, "BSTAR": 0.00049975761, "MEAN_MOTION_DOT": 2.399e-05, "MEAN_MOTION_DDOT": 0}, "tle": {"line1": "1 28376U 04026A   25339.25591587  .00002399  00000+0  49976-3 0  9992", "line2": "2 28376  98.3173 289.4480 0001136  92.3877 267.7453 14.60918933137897"}}, "geometry": {"type": "Point", "coordinates": [10.531130037083955, -81.56440509256974]}}]}